NORAD_CAT_ID,OBJECT_NAME,OBJECT_TYPE,EPOCH,MEAN_MOTION,ECCENTRICITY,INCLINATION,RA_OF_ASC_NODE,ARG_OF_PERICENTER,MEAN_ANOMALY,BSTAR,MEAN_MOTION_DOT,MEAN_MOTION_DDOT,TLE_LINE0,TLE_LINE1,TLE_LINE2,SEMIMAJOR_AXIS,PERIOD,APOGEE,PERIGEE,DECAYED
52559.0,STARLINK-3953,PAYLOAD,2022-07-03 14:00:01,15.62502075,0.0001749,53.2173,42.5077,36.7431,104.2122,-0.012877,-0.01063534,0.0,0 STARLINK-3953,1 52559U 22051AC  22184.58334491 -.01063534  00000-0 -12877-1 0  9990,2 52559  53.2173  42.5077 0001749  36.7431 104.2122 15.62502075  1308,6758.569,92.16,381.616,379.252,0.0
52559.0,STARLINK-3953,PAYLOAD,2022-07-03 22:00:00,15.61742598,0.0001816,53.2173,40.8839,36.7641,179.8015,-0.013267,-0.01063627,0.0,0 STARLINK-3953,1 52559U 22051AC  22184.91667824 -.01063627  00000-0 -13267-1 0  9993,2 52559  53.2173  40.8839 0001816  36.7641 179.8015 15.61742598  8562,6760.76,92.205,383.853,381.398,0.0
52559.0,STARLINK-3953,PAYLOAD,2022-07-04 14:00:01,15.60222603,0.0001492,53.2175,37.6355,36.4663,328.5856,-0.014042,-0.01061353,0.0,0 STARLINK-3953,1 52559U 22051AC  22185.58334491 -.01061353  00000-0 -14042-1 0  9994,2 52559  53.2175  37.6355 0001492  36.4663 328.5856 15.60222603  1302,6765.151,92.295,388.025,386.006,0.0
52559.0,STARLINK-3953,PAYLOAD,2022-07-04 22:00:00,15.59465486,0.0001941,53.2176,36.0172,28.5884,49.3349,-0.014512,-0.01065176,0.0,0 STARLINK-3953,1 52559U 22051AC  22185.91667824 -.01065176  00000-0 -14512-1 0  9999,2 52559  53.2176  36.0172 0001941  28.5884  49.3349 15.59465486  1300,6767.34,92.339,390.519,387.891,0.0
52559.0,STARLINK-3953,PAYLOAD,2022-07-05 08:00:01,15.58516093,0.0001491,53.2175,33.9927,43.6825,214.0502,-0.015048,-0.01065032,0.0,0 STARLINK-3953,1 52559U 22051AC  22186.33334491 -.01065032  00000-0 -15048-1 0  9993,2 52559  53.2175  33.9927 0001491  43.6825 214.0502 15.58516093  8787,6770.0880000000025,92.396,392.962,390.944,0.0
52559.0,STARLINK-3953,PAYLOAD,2022-07-05 14:00:01,15.57944733,0.0001689,53.2175,32.7799,40.46,180.4736,-0.015311,-0.01060859,0.0,0 STARLINK-3953,1 52559U 22051AC  22186.58334491 -.01060859  00000-0 -15311-1 0  9995,2 52559  53.2175  32.7799 0001689  40.4600 180.4736 15.57944733  1307,6771.743,92.429,394.752,392.464,0.0
52559.0,STARLINK-3953,PAYLOAD,2022-07-05 22:00:00,15.57186688,0.0001771999999999,53.2173,31.1671,33.1126,257.955,-0.015809,-0.01064149,0.0,0 STARLINK-3953,1 52559U 22051AC  22186.91667824 -.01064149  00000-0 -15809-1 0  9999,2 52559  53.2173  31.1671 0001772  33.1126 257.9550 15.57186688  1303,6773.941,92.474,397.006,394.605,0.0
52559.0,STARLINK-3953,PAYLOAD,2022-07-06 06:00:00,15.56427258,0.0001592,53.2173,29.5526,32.0056,328.2858,-0.016271,-0.01064372,0.0,0 STARLINK-3953,1 52559U 22051AC  22187.25001157 -.01064372  00000-0 -16271-1 0  9990,2 52559  53.2173  29.5526 0001592  32.0056 328.2858 15.56427258  8932,6776.144,92.52,399.088,396.93,0.0
52559.0,STARLINK-3953,PAYLOAD,2022-07-06 14:00:01,15.55665156,0.0001643,53.2174,27.9406,35.6471,32.9555,-0.016654,-0.01059377,0.0,0 STARLINK-3953,1 52559U 22051AC  22187.58334491 -.01059377  00000-0 -16654-1 0  9990,2 52559  53.2174  27.9406 0001643  35.6471  32.9555 15.55665156  1306,6778.357,92.565,401.335,399.108,0.0
52559.0,STARLINK-3953,PAYLOAD,2022-07-06 19:52:35,15.56644536,5.56e-05,53.2161,26.7841,154.8702,205.2339,-0.0069717,-0.00476948,0.0,0 STARLINK-3953,1 52559U 22051AC  22187.82819366 -.00476948  00000-0 -69717-2 0  9991,2 52559  53.2161  26.7841 0000556 154.8702 205.2339 15.56644536  9027,6775.513000000001,92.507,397.755,397.002,0.0
52559.0,STARLINK-3953,PAYLOAD,2022-07-07 06:00:02,15.54149014,0.0001671,53.2175,24.7241,41.2907,161.2577,-0.0177,-0.01064038,0.0,0 STARLINK-3953,1 52559U 22051AC  22188.25002315 -.01064038  00000-0 -17700-1 0  9995,2 52559  53.2175  24.7241 0001671  41.2907 161.2577 15.54149014  9089,6782.764,92.655,405.763,403.496,0.0
52559.0,STARLINK-3953,PAYLOAD,2022-07-07 14:00:01,15.5338792,0.0001749,53.2176,23.1181,35.426,232.63,-0.018128,-0.01060171,0.0,0 STARLINK-3953,1 52559U 22051AC  22188.58334491 -.01060171  00000-0 -18128-1 0  9993,2 52559  53.2176  23.1181 0001749  35.4260 232.6300 15.53387920  1302,6784.98,92.701,408.031,405.658,0.0
52559.0,STARLINK-3953,PAYLOAD,2022-07-07 22:00:00,15.52629304,0.0001825,53.2176,21.516,29.419,303.2953,-0.018679,-0.01062391,0.0,0 STARLINK-3953,1 52559U 22051AC  22188.91667824 -.01062391  00000-0 -18679-1 0  9996,2 52559  53.2176  21.5160 0001825  29.4190 303.2953 15.52629304  1304,6787.19,92.746,410.293,407.816,0.0
52559.0,STARLINK-3953,PAYLOAD,2022-07-08 06:00:02,15.51868676,0.0001606,53.2175,19.9122,33.3846,3.1428,-0.019168,-0.01060648,0.0,0 STARLINK-3953,1 52559U 22051AC  22189.25002315 -.01060648  00000-0 -19168-1 0  9999,2 52559  53.2175  19.9122 0001606  33.3846   3.1428 15.51868676  9241,6789.406999999997,92.791,412.36300000000006,410.182,0.0
52559.0,STARLINK-3953,PAYLOAD,2022-07-08 14:00:01,15.51103301,0.0001708,53.2177,18.3124,34.3474,64.9506,-0.01948,-0.01049683,0.0,0 STARLINK-3953,1 52559U 22051AC  22189.58334491 -.01049683  00000-0 -19480-1 0  9991,2 52559  53.2177  18.3124 0001708  34.3474  64.9506 15.51103301  1307,6791.641,92.837,414.666,412.346,0.0
52559.0,STARLINK-3953,PAYLOAD,2022-07-08 22:00:01,15.50223158,0.000177,53.2175,16.7175,32.7562,128.5394,-0.008064,-0.00438681,0.0,0 STARLINK-3953,1 52559U 22051AC  22189.91668981 -.00438681  00000-0 -80640-2 0  9998,2 52559  53.2175  16.7175 0001770  32.7562 128.5394 15.50223158  9348,6794.2109999999975,92.89,417.279,414.87300000000016,0.0
52559.0,STARLINK-3953,PAYLOAD,2022-07-09 06:00:00,15.49887453,0.0001546,53.2175,15.1219,44.2732,178.0848,-6.737e-05,-4.273e-05,0.0,0 STARLINK-3953,1 52559U 22051AC  22190.25001157 -.00004273  00000-0 -67370-4 0  9996,2 52559  53.2175  15.1219 0001546  44.2732 178.0848 15.49887453  9399,6795.191999999999,92.91,418.108,416.006,0.0
52559.0,STARLINK-3953,PAYLOAD,2022-07-09 14:00:01,15.50025943,0.0001268,53.2166,13.5333,36.153,246.9516,-0.0012068,-0.00068686,0.0,0 STARLINK-3953,1 52559U 22051AC  22190.58334491 -.00068686  00000-0 -12068-2 0  9992,2 52559  53.2166  13.5333 0001268  36.1530 246.9516 15.50025943  1305,6794.7869999999975,92.902,417.514,415.791,0.0
52559.0,STARLINK-3953,PAYLOAD,2022-07-09 20:00:01,15.49993944,0.0001551,53.2163,12.3407,43.0285,195.7479,-0.0038572,-0.00214319,0.0,0 STARLINK-3953,1 52559U 22051AC  22190.83334491 -.00214319  00000-0 -38572-2 0  9994,2 52559  53.2163  12.3407 0001551  43.0285 195.7479 15.49993944  1302,6794.880999999999,92.904,417.8,415.692,0.0
52559.0,STARLINK-3953,PAYLOAD,2022-07-10 06:00:00,15.4958731,0.0001548,53.2175,10.3378,35.3648,9.6069,-0.020708,-0.01056284,0.0,0 STARLINK-3953,1 52559U 22051AC  22191.25001157 -.01056284  00000-0 -20708-1 0  9998,2 52559  53.2175  10.3378 0001548  35.3648   9.6069 15.49587310  9552,6796.069,92.928,418.986,416.882,0.0
52559.0,STARLINK-3953,PAYLOAD,2022-07-10 14:00:01,15.48829706,0.0001845,53.2175,8.7429,33.0316,72.035,-0.021309,-0.01058049,0.0,0 STARLINK-3953,1 52559U 22051AC  22191.58334491 -.01058049  00000-0 -21309-1 0  9993,2 52559  53.2175   8.7429 0001845  33.0316  72.0350 15.48829706  1306,6798.285,92.973,421.405,418.896,0.0
52559.0,STARLINK-3953,PAYLOAD,2022-07-10 22:00:00,15.48066116,0.0001726,53.2175,7.1516,41.5331,122.7174,-0.021729,-0.01050915,0.0,0 STARLINK-3953,1 52559U 22051AC  22191.91667824 -.01050915  00000-0 -21729-1 0  9999,2 52559  53.2175   7.1516 0001726  41.5331 122.7174 15.48066116  9656,6800.521,93.019,423.56,421.212,0.0
52559.0,STARLINK-3953,PAYLOAD,2022-07-11 14:00:01,15.46551374,0.0001751,53.2177,3.9696,35.5328,244.3459,-0.023067,-0.01057425,0.0,0 STARLINK-3953,1 52559U 22051AC  22192.58334491 -.01057425  00000-0 -23067-1 0  9994,2 52559  53.2177   3.9696 0001751  35.5328 244.3459 15.46551374  1302,6804.96,93.11,428.017,425.634,0.0
52559.0,STARLINK-3953,PAYLOAD,2022-07-11 22:00:00,15.45790617,0.0001499,53.2174,2.3835,39.9611,296.3626,-0.023626,-0.01055012,0.0,0 STARLINK-3953,1 52559U 22051AC  22192.91667824 -.01055012  00000-0 -23626-1 0  9991,2 52559  53.2174   2.3835 0001499  39.9611 296.3626 15.45790617  1306,6807.193,93.156,430.078,428.038,0.0
52559.0,STARLINK-3953,PAYLOAD,2022-07-12 14:00:01,15.44273158,0.000188,53.2176,359.2125,31.058000000000003,55.4191,-0.024967,-0.01057986,0.0,0 STARLINK-3953,1 52559U 22051AC  22193.58334491 -.01057986  00000-0 -24967-1 0  9997,2 52559  53.2176 359.2125 0001880  31.0580  55.4191 15.44273158  9917,6811.651999999999,93.248,434.797,432.236,0.0
52559.0,STARLINK-3953,PAYLOAD,2022-07-12 22:00:00,15.43508514,0.0001698,53.2172,357.6317,41.2552,98.9303,-0.025386,-0.01048887,0.0,0 STARLINK-3953,1 52559U 22051AC  22193.91667824 -.01048887  00000-0 -25386-1 0  9999,2 52559  53.2172 357.6317 0001698  41.2552  98.9303 15.43508514  1305,6813.901,93.294,436.923,434.609,0.0
52559.0,STARLINK-3953,PAYLOAD,2022-07-13 14:00:01,15.41992924,0.0001847,53.2175,354.4717,36.3011,208.5607,-0.02687,-0.0106892,0.0,0 STARLINK-3953,1 52559U 22051AC  22194.58334491 -.01068920  00000-0 -26870-1 0  9993,2 52559  53.2175 354.4717 0001847  36.3011 208.5607 15.41992924  1304,6818.365,93.386,441.489,438.971,0.0
52559.0,STARLINK-3953,PAYLOAD,2022-07-13 22:00:00,15.4123261,0.0001811,53.2172,352.8963,32.079,263.7517,-0.027503,-0.01066714,0.0,0 STARLINK-3953,1 52559U 22051AC  22194.91667824 -.01066714  00000-0 -27503-1 0  9992,2 52559  53.2172 352.8963 0001811  32.0790 263.7517 15.41232610  1306,6820.607,93.432,443.708,441.237,0.0
52559.0,STARLINK-3953,PAYLOAD,2022-07-14 14:00:01,15.39716017,0.0001675,53.2174,349.7472,34.9316,0.1001,-0.02907,-0.01071502,0.0,0 STARLINK-3953,1 52559U 22051AC  22195.58334491 -.01071502  00000-0 -29070-1 0  9999,2 52559  53.2174 349.7472 0001675  34.9316   0.1001 15.39716017 10228,6825.085,93.524,448.094,445.807,0.0
